CCSDS_OMM_VERS = 2.0
CREATION_DATE  = 
ORIGINATOR     = 

OBJECT_NAME    = ISS (ZARYA)
OBJECT_ID      = 1998-067A
CENTER_NAME    = EARTH
REF_FRAME      = TEME
TIME_SYSTEM    = UTC
MEAN_ELEMENT_THEORY = SGP/SGP4

EPOCH          = 2025-11-02T10:09:34.282944
MEAN_MOTION    = 15.49700017
ECCENTRICITY   = .0004969
INCLINATION    = 51.6344
RA_OF_ASC_NODE = 342.0717
ARG_OF_PERICENTER = 8.9436
MEAN_ANOMALY   = 351.1640

EPHEMERIS_TYPE = 0
CLASSIFICATION_TYPE = U
NORAD_CAT_ID   = 25544
ELEMENT_SET_NO = 999
REV_AT_EPOCH   = 53660
BSTAR          = .1861E-3
MEAN_MOTION_DOT = .1007E-3
MEAN_MOTION_DDOT = 0

CCSDS_OMM_VERS = 2.0
CREATION_DATE  = 
ORIGINATOR     = 

OBJECT_NAME    = CSS (TIANHE)
OBJECT_ID      = 2021-035A
CENTER_NAME    = EARTH
REF_FRAME      = TEME
TIME_SYSTEM    = UTC
MEAN_ELEMENT_THEORY = SGP/SGP4

EPOCH          = 2025-11-02T04:13:14.335968
MEAN_MOTION    = 15.60215133
ECCENTRICITY   = .00066821
INCLINATION    = 41.4666
RA_OF_ASC_NODE = 263.0710
ARG_OF_PERICENTER = 308.7013
MEAN_ANOMALY   = 51.3228

EPHEMERIS_TYPE = 0
CLASSIFICATION_TYPE = U
NORAD_CAT_ID   = 48274
ELEMENT_SET_NO = 999
REV_AT_EPOCH   = 25769
BSTAR          = .3813083E-3
MEAN_MOTION_DOT = .31797E-3
MEAN_MOTION_DDOT = 0

CCSDS_OMM_VERS = 2.0
CREATION_DATE  = 
ORIGINATOR     = 

OBJECT_NAME    = ISS (NAUKA)
OBJECT_ID      = 2021-066A
CENTER_NAME    = EARTH
REF_FRAME      = TEME
TIME_SYSTEM    = UTC
MEAN_ELEMENT_THEORY = SGP/SGP4

EPOCH          = 2025-11-02T03:58:07.869504
MEAN_MOTION    = 15.49695226
ECCENTRICITY   = .00049491
INCLINATION    = 51.6344
RA_OF_ASC_NODE = 343.3491
ARG_OF_PERICENTER = 8.0304
MEAN_ANOMALY   = 352.0763

EPHEMERIS_TYPE = 0
CLASSIFICATION_TYPE = U
NORAD_CAT_ID   = 49044
ELEMENT_SET_NO = 999
REV_AT_EPOCH   = 23044
BSTAR          = .1982056E-3
MEAN_MOTION_DOT = .10754E-3
MEAN_MOTION_DDOT = 0

CCSDS_OMM_VERS = 2.0
CREATION_DATE  = 
ORIGINATOR     = 

OBJECT_NAME    = FREGAT DEB
OBJECT_ID      = 2011-037PF
CENTER_NAME    = EARTH
REF_FRAME      = TEME
TIME_SYSTEM    = UTC
MEAN_ELEMENT_THEORY = SGP/SGP4

EPOCH          = 2025-11-02T07:46:19.667136
MEAN_MOTION    = 12.33780837
ECCENTRICITY   = .0888417
INCLINATION    = 51.6276
RA_OF_ASC_NODE = 318.9423
ARG_OF_PERICENTER = 136.6799
MEAN_ANOMALY   = 230.7491

EPHEMERIS_TYPE = 0
CLASSIFICATION_TYPE = U
NORAD_CAT_ID   = 49271
ELEMENT_SET_NO = 999
REV_AT_EPOCH   = 19694
BSTAR          = .32118E-2
MEAN_MOTION_DOT = .1437E-4
MEAN_MOTION_DDOT = 0

CCSDS_OMM_VERS = 2.0
CREATION_DATE  = 
ORIGINATOR     = 

OBJECT_NAME    = CSS (WENTIAN)
OBJECT_ID      = 2022-085A
CENTER_NAME    = EARTH
REF_FRAME      = TEME
TIME_SYSTEM    = UTC
MEAN_ELEMENT_THEORY = SGP/SGP4

EPOCH          = 2025-11-02T04:13:14.335968
MEAN_MOTION    = 15.60215133
ECCENTRICITY   = .00066821
INCLINATION    = 41.4666
RA_OF_ASC_NODE = 263.0710
ARG_OF_PERICENTER = 308.7013
MEAN_ANOMALY   = 51.3228

EPHEMERIS_TYPE = 0
CLASSIFICATION_TYPE = U
NORAD_CAT_ID   = 53239
ELEMENT_SET_NO = 999
REV_AT_EPOCH   = 17384
BSTAR          = .3813083E-3
MEAN_MOTION_DOT = .31797E-3
MEAN_MOTION_DDOT = 0

CCSDS_OMM_VERS = 2.0
CREATION_DATE  = 
ORIGINATOR     = 

OBJECT_NAME    = CSS (MENGTIAN)
OBJECT_ID      = 2022-143A
CENTER_NAME    = EARTH
REF_FRAME      = TEME
TIME_SYSTEM    = UTC
MEAN_ELEMENT_THEORY = SGP/SGP4

EPOCH          = 2025-11-02T04:13:14.335968
MEAN_MOTION    = 15.60215133
ECCENTRICITY   = .00066821
INCLINATION    = 41.4666
RA_OF_ASC_NODE = 263.0710
ARG_OF_PERICENTER = 308.7013
MEAN_ANOMALY   = 51.3228

EPHEMERIS_TYPE = 0
CLASSIFICATION_TYPE = U
NORAD_CAT_ID   = 54216
ELEMENT_SET_NO = 999
REV_AT_EPOCH   = 15864
BSTAR          = .3813083E-3
MEAN_MOTION_DOT = .31797E-3
MEAN_MOTION_DDOT = 0

CCSDS_OMM_VERS = 2.0
CREATION_DATE  = 
ORIGINATOR     = 

OBJECT_NAME    = SOYUZ-MS 27
OBJECT_ID      = 2025-072A
CENTER_NAME    = EARTH
REF_FRAME      = TEME
TIME_SYSTEM    = UTC
MEAN_ELEMENT_THEORY = SGP/SGP4

EPOCH          = 2025-11-02T03:58:07.869504
MEAN_MOTION    = 15.49695226
ECCENTRICITY   = .00049491
INCLINATION    = 51.6344
RA_OF_ASC_NODE = 343.3491
ARG_OF_PERICENTER = 8.0304
MEAN_ANOMALY   = 352.0763

EPHEMERIS_TYPE = 0
CLASSIFICATION_TYPE = U
NORAD_CAT_ID   = 63520
ELEMENT_SET_NO = 999
REV_AT_EPOCH   = 2020
BSTAR          = .1982056E-3
MEAN_MOTION_DOT = .10754E-3
MEAN_MOTION_DDOT = 0

CCSDS_OMM_VERS = 2.0
CREATION_DATE  = 
ORIGINATOR     = 

OBJECT_NAME    = SHENZHOU-20 (SZ-20)
OBJECT_ID      = 2025-082A
CENTER_NAME    = EARTH
REF_FRAME      = TEME
TIME_SYSTEM    = UTC
MEAN_ELEMENT_THEORY = SGP/SGP4

EPOCH          = 2025-11-02T04:13:14.335968
MEAN_MOTION    = 15.60215133
ECCENTRICITY   = .00066821
INCLINATION    = 41.4666
RA_OF_ASC_NODE = 263.0710
ARG_OF_PERICENTER = 308.7013
MEAN_ANOMALY   = 51.3228

EPHEMERIS_TYPE = 0
CLASSIFICATION_TYPE = U
NORAD_CAT_ID   = 63632
ELEMENT_SET_NO = 999
REV_AT_EPOCH   = 25530
BSTAR          = .3813083E-3
MEAN_MOTION_DOT = .31797E-3
MEAN_MOTION_DDOT = 0

CCSDS_OMM_VERS = 2.0
CREATION_DATE  = 
ORIGINATOR     = 

OBJECT_NAME    = PROGRESS-MS 31
OBJECT_ID      = 2025-146A
CENTER_NAME    = EARTH
REF_FRAME      = TEME
TIME_SYSTEM    = UTC
MEAN_ELEMENT_THEORY = SGP/SGP4

EPOCH          = 2025-11-02T03:58:07.869504
MEAN_MOTION    = 15.49695226
ECCENTRICITY   = .00049491
INCLINATION    = 51.6344
RA_OF_ASC_NODE = 343.3491
ARG_OF_PERICENTER = 8.0304
MEAN_ANOMALY   = 352.0763

EPHEMERIS_TYPE = 0
CLASSIFICATION_TYPE = U
NORAD_CAT_ID   = 64751
ELEMENT_SET_NO = 999
REV_AT_EPOCH   = 675
BSTAR          = .1982056E-3
MEAN_MOTION_DOT = .10754E-3
MEAN_MOTION_DDOT = 0

CCSDS_OMM_VERS = 2.0
CREATION_DATE  = 
ORIGINATOR     = 

OBJECT_NAME    = TIANZHOU-9
OBJECT_ID      = 2025-149A
CENTER_NAME    = EARTH
REF_FRAME      = TEME
TIME_SYSTEM    = UTC
MEAN_ELEMENT_THEORY = SGP/SGP4

EPOCH          = 2025-11-02T04:13:14.335968
MEAN_MOTION    = 15.60215133
ECCENTRICITY   = .00066821
INCLINATION    = 41.4666
RA_OF_ASC_NODE = 263.0710
ARG_OF_PERICENTER = 308.7013
MEAN_ANOMALY   = 51.3228

EPHEMERIS_TYPE = 0
CLASSIFICATION_TYPE = U
NORAD_CAT_ID   = 64786
ELEMENT_SET_NO = 999
REV_AT_EPOCH   = 25530
BSTAR          = .3813083E-3
MEAN_MOTION_DOT = .31797E-3
MEAN_MOTION_DDOT = 0

CCSDS_OMM_VERS = 2.0
CREATION_DATE  = 
ORIGINATOR     = 

OBJECT_NAME    = CREW DRAGON 11
OBJECT_ID      = 2025-166A
CENTER_NAME    = EARTH
REF_FRAME      = TEME
TIME_SYSTEM    = UTC
MEAN_ELEMENT_THEORY = SGP/SGP4

EPOCH          = 2025-11-02T03:58:07.869504
MEAN_MOTION    = 15.49695226
ECCENTRICITY   = .00049491
INCLINATION    = 51.6344
RA_OF_ASC_NODE = 343.3491
ARG_OF_PERICENTER = 8.0304
MEAN_ANOMALY   = 352.0763

EPHEMERIS_TYPE = 0
CLASSIFICATION_TYPE = U
NORAD_CAT_ID   = 65077
ELEMENT_SET_NO = 999
REV_AT_EPOCH   = 214
BSTAR          = .1982056E-3
MEAN_MOTION_DOT = .10754E-3
MEAN_MOTION_DDOT = 0

CCSDS_OMM_VERS = 2.0
CREATION_DATE  = 
ORIGINATOR     = 

OBJECT_NAME    = DRAGON CRS-33
OBJECT_ID      = 2025-186A
CENTER_NAME    = EARTH
REF_FRAME      = TEME
TIME_SYSTEM    = UTC
MEAN_ELEMENT_THEORY = SGP/SGP4

EPOCH          = 2025-11-02T03:58:07.869504
MEAN_MOTION    = 15.49695226
ECCENTRICITY   = .00049491
INCLINATION    = 51.6344
RA_OF_ASC_NODE = 343.3491
ARG_OF_PERICENTER = 8.0304
MEAN_ANOMALY   = 352.0763

EPHEMERIS_TYPE = 0
CLASSIFICATION_TYPE = U
NORAD_CAT_ID   = 65304
ELEMENT_SET_NO = 999
REV_AT_EPOCH   = 11
BSTAR          = .1982056E-3
MEAN_MOTION_DOT = .10754E-3
MEAN_MOTION_DDOT = 0

