ISS (ZARYA)             
1 25544U 98067A   25306.42331346  .00010070  00000+0  18610-3 0  9998
2 25544  51.6344 342.0717 0004969   8.9436 351.1640 15.49700017536601
CSS (TIANHE)            
1 48274U 21035A   25306.17586037  .00031797  00000+0  38131-3 0  9994
2 48274  41.4666 263.0710 0006682 308.7013  51.3228 15.60215133257694
ISS (NAUKA)             
1 49044U 21066A   25306.16536886  .00010754  00000+0  19821-3 0  9995
2 49044  51.6344 343.3491 0004949   8.0304 352.0763 15.49695226230442
FREGAT DEB              
1 49271U 11037PF  25306.32383874  .00001437  00000+0  32118-2 0  9990
2 49271  51.6276 318.9423 0888417 136.6799 230.7491 12.33780837196946
CSS (WENTIAN)           
1 53239U 22085A   25306.17586037  .00031797  00000+0  38131-3 0  9997
2 53239  41.4666 263.0710 0006682 308.7013  51.3228 15.60215133173845
CSS (MENGTIAN)          
1 54216U 22143A   25306.17586037  .00031797  00000+0  38131-3 0  9998
2 54216  41.4666 263.0710 0006682 308.7013  51.3228 15.60215133158642
SOYUZ-MS 27             
1 63520U 25072A   25306.16536886  .00010754  00000+0  19821-3 0  9991
2 63520  51.6344 343.3491 0004949   8.0304 352.0763 15.49695226 20208
SHENZHOU-20 (SZ-20)     
1 63632U 25082A   25306.17586037  .00031797  00000+0  38131-3 0  9995
2 63632  41.4666 263.0710 0006682 308.7013  51.3228 15.60215133255305
PROGRESS-MS 31          
1 64751U 25146A   25306.16536886  .00010754  00000+0  19821-3 0  9990
2 64751  51.6344 343.3491 0004949   8.0304 352.0763 15.49695226  6759
TIANZHOU-9              
1 64786U 25149A   25306.17586037  .00031797  00000+0  38131-3 0  9990
2 64786  41.4666 263.0710 0006682 308.7013  51.3228 15.60215133255306
CREW DRAGON 11          
1 65077U 25166A   25306.16536886  .00010754  00000+0  19821-3 0  9994
2 65077  51.6344 343.3491 0004949   8.0304 352.0763 15.49695226  2140
DRAGON CRS-33           
1 65304U 25186A   25306.16536886  .00010754  00000+0  19821-3 0  9999
2 65304  51.6344 343.3491 0004949   8.0304 352.0763 15.49695226   118
